{
  "type": "FeatureCollection",
  "features": [
    {
      "type": "Feature",
      "properties": {
        "norad_id": 66914,
        "name": "2025-284B",
        "group": "last-30-days",
        "lat": 73.58104389535913,
        "lon": 164.9625677786321,
        "alt_km": 507.68846442344875,
        "timestamp": "2025-12-12T14:39:16.773434+00:00",
        "meta_object_name": "2025-284B",
        "meta_object_id": "2025-284B",
        "meta_epoch": "2025-12-12T07:59:38.522400",
        "meta_mean_motion": 15.18906899,
        "meta_eccentricity": 0.00083313,
        "meta_inclination": 80.4054,
        "meta_ra_of_asc_node": 130.2812,
        "meta_arg_of_pericenter": 248.2959,
        "meta_mean_anomaly": 111.7382,
        "meta_ephemeris_type": 0,
        "meta_classification_type": "U",
        "meta_norad_cat_id": 66914,
        "meta_element_set_no": 999,
        "meta_rev_at_epoch": 106,
        "meta_bstar": 0.00066626919,
        "meta_mean_motion_dot": 0.00013946,
        "meta_mean_motion_ddot": 0,
        "tle_line1": "1 66914U 25284B   25346.33308475  .00013946  00000+0  66627-3 0  9992",
        "tle_line2": "2 66914  80.4054 130.2812 0008331 248.2959 111.7382 15.18906899  1066"
      },
      "geometry": {
        "type": "Point",
        "coordinates": [
          164.9625677786321,
          73.58104389535913
        ]
      }
    },
    {
      "type": "Feature",
      "properties": {
        "norad_id": 66915,
        "name": "HULIANWANG DIGUI-105",
        "group": "last-30-days",
        "lat": -47.754236772645136,
        "lon": 5.3646151165264175,
        "alt_km": 877.1068488578776,
        "timestamp": "2025-12-12T14:39:16.773444+00:00",
        "meta_object_name": "HULIANWANG DIGUI-105",
        "meta_object_id": "2025-285A",
        "meta_epoch": "2025-12-12T04:54:23.874336",
        "meta_mean_motion": 14.04578447,
        "meta_eccentricity": 0.0008078,
        "meta_inclination": 50.0047,
        "meta_ra_of_asc_node": 119.4525,
        "meta_arg_of_pericenter": 279.5241,
        "meta_mean_anomaly": 80.475,
        "meta_ephemeris_type": 0,
        "meta_classification_type": "U",
        "meta_norad_cat_id": 66915,
        "meta_element_set_no": 999,
        "meta_rev_at_epoch": 83,
        "meta_bstar": 0.00019830708,
        "meta_mean_motion_dot": 1.67e-06,
        "meta_mean_motion_ddot": 0,
        "tle_line1": "1 66915U 25285A   25346.20444299  .00000167  00000+0  19831-3 0  9991",
        "tle_line2": "2 66915  50.0047 119.4525 0008078 279.5241  80.4750 14.04578447   834"
      },
      "geometry": {
        "type": "Point",
        "coordinates": [
          5.3646151165264175,
          -47.754236772645136
        ]
      }
    },
    {
      "type": "Feature",
      "properties": {
        "norad_id": 66916,
        "name": "HULIANWANG DIGUI-106",
        "group": "last-30-days",
        "lat": -48.815367282054765,
        "lon": 11.418263302853372,
        "alt_km": 874.3863062584187,
        "timestamp": "2025-12-12T14:39:16.773453+00:00",
        "meta_object_name": "HULIANWANG DIGUI-106",
        "meta_object_id": "2025-285B",
        "meta_epoch": "2025-12-12T08:18:22.724640",
        "meta_mean_motion": 14.05514574,
        "meta_eccentricity": 0.0006964,
        "meta_inclination": 50.0048,
        "meta_ra_of_asc_node": 118.8706,
        "meta_arg_of_pericenter": 276.0479,
        "meta_mean_anomaly": 83.9633,
        "meta_ephemeris_type": 0,
        "meta_classification_type": "U",
        "meta_norad_cat_id": 66916,
        "meta_element_set_no": 999,
        "meta_rev_at_epoch": 85,
        "meta_bstar": 0.00019829877,
        "meta_mean_motion_dot": 1.72e-06,
        "meta_mean_motion_ddot": 0,
        "tle_line1": "1 66916U 25285B   25346.34609635  .00000172  00000+0  19830-3 0  9999",
        "tle_line2": "2 66916  50.0048 118.8706 0006964 276.0479  83.9633 14.05514574   859"
      },
      "geometry": {
        "type": "Point",
        "coordinates": [
          11.418263302853372,
          -48.815367282054765
        ]
      }
    },
    {
      "type": "Feature",
      "properties": {
        "norad_id": 66917,
        "name": "HULIANWANG DIGUI-107",
        "group": "last-30-days",
        "lat": -49.12324970513254,
        "lon": 13.72218812867038,
        "alt_km": 873.97376657717,
        "timestamp": "2025-12-12T14:39:16.773462+00:00",
        "meta_object_name": "HULIANWANG DIGUI-107",
        "meta_object_id": "2025-285C",
        "meta_epoch": "2025-12-12T08:17:57.073344",
        "meta_mean_motion": 14.05580261,
        "meta_eccentricity": 0.00075564,
        "meta_inclination": 50.0014,
        "meta_ra_of_asc_node": 118.8651,
        "meta_arg_of_pericenter": 283.8554,
        "meta_mean_anomaly": 76.151,
        "meta_ephemeris_type": 0,
        "meta_classification_type": "U",
        "meta_norad_cat_id": 66917,
        "meta_element_set_no": 999,
        "meta_rev_at_epoch": 85,
        "meta_bstar": 1.298898e-05,
        "meta_mean_motion_dot": -1.31e-06,
        "meta_mean_motion_ddot": 0,
        "tle_line1": "1 66917U 25285C   25346.34579946 -.00000131  00000+0  12989-4 0  9996",
        "tle_line2": "2 66917  50.0014 118.8651 0007556 283.8554  76.1510 14.05580261   854"
      },
      "geometry": {
        "type": "Point",
        "coordinates": [
          13.72218812867038,
          -49.12324970513254
        ]
      }
    },
    {
      "type": "Feature",
      "properties": {
        "norad_id": 66918,
        "name": "HULIANWANG DIGUI-108",
        "group": "last-30-days",
        "lat": -49.56520606764005,
        "lon": 17.918171142932238,
        "alt_km": 874.0654988578854,
        "timestamp": "2025-12-12T14:39:16.773473+00:00",
        "meta_object_name": "HULIANWANG DIGUI-108",
        "meta_object_id": "2025-285D",
        "meta_epoch": "2025-12-12T08:17:12.187680",
        "meta_mean_motion": 14.05705181,
        "meta_eccentricity": 0.00064667,
        "meta_inclination": 50.0035,
        "meta_ra_of_asc_node": 118.8647,
        "meta_arg_of_pericenter": 278.9319,
        "meta_mean_anomaly": 81.0854,
        "meta_ephemeris_type": 0,
        "meta_classification_type": "U",
        "meta_norad_cat_id": 66918,
        "meta_element_set_no": 999,
        "meta_rev_at_epoch": 85,
        "meta_bstar": 0.00020143036,
        "meta_mean_motion_dot": 1.78e-06,
        "meta_mean_motion_ddot": 0,
        "tle_line1": "1 66918U 25285D   25346.34527995  .00000178  00000+0  20143-3 0  9994",
        "tle_line2": "2 66918  50.0035 118.8647 0006466 278.9319  81.0854 14.05705181   852"
      },
      "geometry": {
        "type": "Point",
        "coordinates": [
          17.918171142932238,
          -49.56520606764005
        ]
      }
    },
    {
      "type": "Feature",
      "properties": {
        "norad_id": 66919,
        "name": "HULIANWANG DIGUI-109",
        "group": "last-30-days",
        "lat": -49.608688769219505,
        "lon": 18.409523629994418,
        "alt_km": 873.4637178803005,
        "timestamp": "2025-12-12T14:39:16.773482+00:00",
        "meta_object_name": "HULIANWANG DIGUI-109",
        "meta_object_id": "2025-285E",
        "meta_epoch": "2025-12-12T08:17:06.352224",
        "meta_mean_motion": 14.05716301,
        "meta_eccentricity": 0.00078702,
        "meta_inclination": 50.0061,
        "meta_ra_of_asc_node": 118.8676,
        "meta_arg_of_pericenter": 290.4201,
        "meta_mean_anomaly": 69.5859,
        "meta_ephemeris_type": 0,
        "meta_classification_type": "U",
        "meta_norad_cat_id": 66919,
        "meta_element_set_no": 999,
        "meta_rev_at_epoch": 85,
        "meta_bstar": 1.001386e-06,
        "meta_mean_motion_dot": -1.51e-06,
        "meta_mean_motion_ddot": 0,
        "tle_line1": "1 66919U 25285E   25346.34521241 -.00000151  00000+0  10014-5 0  9993",
        "tle_line2": "2 66919  50.0061 118.8676 0007870 290.4201  69.5859 14.05716301   855"
      },
      "geometry": {
        "type": "Point",
        "coordinates": [
          18.409523629994418,
          -49.608688769219505
        ]
      }
    },
    {
      "type": "Feature",
      "properties": {
        "norad_id": 66920,
        "name": "HULIANWANG DIGUI-110",
        "group": "last-30-days",
        "lat": -49.89313436974813,
        "lon": 23.000816977363804,
        "alt_km": 874.1406601567478,
        "timestamp": "2025-12-12T14:39:16.773491+00:00",
        "meta_object_name": "HULIANWANG DIGUI-110",
        "meta_object_id": "2025-285F",
        "meta_epoch": "2025-12-12T08:16:18.262848",
        "meta_mean_motion": 14.05851064,
        "meta_eccentricity": 0.00058249,
        "meta_inclination": 50.0092,
        "meta_ra_of_asc_node": 118.8684,
        "meta_arg_of_pericenter": 287.2479,
        "meta_mean_anomaly": 72.7789,
        "meta_ephemeris_type": 0,
        "meta_classification_type": "U",
        "meta_norad_cat_id": 66920,
        "meta_element_set_no": 999,
        "meta_rev_at_epoch": 85,
        "meta_bstar": 0.00019650936,
        "meta_mean_motion_dot": 1.71e-06,
        "meta_mean_motion_ddot": 0,
        "tle_line1": "1 66920U 25285F   25346.34465582  .00000171  00000+0  19651-3 0  9995",
        "tle_line2": "2 66920  50.0092 118.8684 0005824 287.2479  72.7789 14.05851064   852"
      },
      "geometry": {
        "type": "Point",
        "coordinates": [
          23.000816977363804,
          -49.89313436974813
        ]
      }
    }
  ]
}